{
  "type": "FeatureCollection",
  "features": [
    {
      "type": "Feature",
      "properties": {
        "norad_id": 40223,
        "name": "COSMOS 2251 DEB",
        "group": "cosmos-2251-debris",
        "lat": -42.356252205022805,
        "lon": 62.8532356779376,
        "alt_km": 551.4851442125664,
        "timestamp": "2025-12-17T21:39:46.087584+00:00",
        "meta_object_name": "COSMOS 2251 DEB",
        "meta_object_id": "1993-036BVC",
        "meta_epoch": "2025-12-16T06:05:42.901728",
        "meta_mean_motion": 15.04017245,
        "meta_eccentricity": 0.00151313,
        "meta_inclination": 73.9375,
        "meta_ra_of_asc_node": 81.4737,
        "meta_arg_of_pericenter": 287.2028,
        "meta_mean_anomaly": 105.0934,
        "meta_ephemeris_type": 0,
        "meta_classification_type": "U",
        "meta_norad_cat_id": 40223,
        "meta_element_set_no": 999,
        "meta_rev_at_epoch": 59427,
        "meta_bstar": 0.0031787319,
        "meta_mean_motion_dot": 0.00044299,
        "meta_mean_motion_ddot": 0,
        "tle_line1": "1 40223U 93036BVC 25350.25396877  .00044299  00000+0  31787-2 0  9999",
        "tle_line2": "2 40223  73.9375  81.4737 0015131 287.2028 105.0934 15.04017245594275"
      },
      "geometry": {
        "type": "Point",
        "coordinates": [
          62.8532356779376,
          -42.356252205022805
        ]
      }
    },
    {
      "type": "Feature",
      "properties": {
        "norad_id": 40228,
        "name": "COSMOS 2251 DEB",
        "group": "cosmos-2251-debris",
        "lat": 30.472426246460344,
        "lon": 61.30039485874401,
        "alt_km": 769.7178590139647,
        "timestamp": "2025-12-17T21:39:46.087593+00:00",
        "meta_object_name": "COSMOS 2251 DEB",
        "meta_object_id": "1993-036BVH",
        "meta_epoch": "2025-12-16T12:28:36.365376",
        "meta_mean_motion": 14.41001864,
        "meta_eccentricity": 0.00241346,
        "meta_inclination": 74.0547,
        "meta_ra_of_asc_node": 253.54,
        "meta_arg_of_pericenter": 314.4543,
        "meta_mean_anomaly": 223.4241,
        "meta_ephemeris_type": 0,
        "meta_classification_type": "U",
        "meta_norad_cat_id": 40228,
        "meta_element_set_no": 999,
        "meta_rev_at_epoch": 58975,
        "meta_bstar": 0.00028514668,
        "meta_mean_motion_dot": 8.93e-06,
        "meta_mean_motion_ddot": 0,
        "tle_line1": "1 40228U 93036BVH 25350.51986534  .00000893  00000+0  28515-3 0  9996",
        "tle_line2": "2 40228  74.0547 253.5400 0024134 314.4543 223.4241 14.41001864589753"
      },
      "geometry": {
        "type": "Point",
        "coordinates": [
          61.30039485874401,
          30.472426246460344
        ]
      }
    },
    {
      "type": "Feature",
      "properties": {
        "norad_id": 40230,
        "name": "COSMOS 2251 DEB",
        "group": "cosmos-2251-debris",
        "lat": 67.84286523328825,
        "lon": -7.429154246853546,
        "alt_km": 734.1966769314631,
        "timestamp": "2025-12-17T21:39:46.087603+00:00",
        "meta_object_name": "COSMOS 2251 DEB",
        "meta_object_id": "1993-036BVK",
        "meta_epoch": "2025-12-14T22:00:49.266432",
        "meta_mean_motion": 14.49332961,
        "meta_eccentricity": 0.00191764,
        "meta_inclination": 74.0428,
        "meta_ra_of_asc_node": 222.8045,
        "meta_arg_of_pericenter": 280.5439,
        "meta_mean_anomaly": 94.8076,
        "meta_ephemeris_type": 0,
        "meta_classification_type": "U",
        "meta_norad_cat_id": 40230,
        "meta_element_set_no": 999,
        "meta_rev_at_epoch": 59003,
        "meta_bstar": 0.00050113522,
        "meta_mean_motion_dot": 1.891e-05,
        "meta_mean_motion_ddot": 0,
        "tle_line1": "1 40230U 93036BVK 25348.91723688  .00001891  00000+0  50114-3 0  9998",
        "tle_line2": "2 40230  74.0428 222.8045 0019176 280.5439  94.8076 14.49332961590037"
      },
      "geometry": {
        "type": "Point",
        "coordinates": [
          -7.429154246853546,
          67.84286523328825
        ]
      }
    },
    {
      "type": "Feature",
      "properties": {
        "norad_id": 40233,
        "name": "COSMOS 2251 DEB",
        "group": "cosmos-2251-debris",
        "lat": 72.03982920262654,
        "lon": -149.4811776887521,
        "alt_km": 679.2473772120084,
        "timestamp": "2025-12-17T21:39:46.087612+00:00",
        "meta_object_name": "COSMOS 2251 DEB",
        "meta_object_id": "1993-036BVN",
        "meta_epoch": "2025-12-16T00:45:52.214112",
        "meta_mean_motion": 14.58458772,
        "meta_eccentricity": 0.0044987,
        "meta_inclination": 73.9406,
        "meta_ra_of_asc_node": 96.8035,
        "meta_arg_of_pericenter": 171.0622,
        "meta_mean_anomaly": 189.1354,
        "meta_ephemeris_type": 0,
        "meta_classification_type": "U",
        "meta_norad_cat_id": 40233,
        "meta_element_set_no": 999,
        "meta_rev_at_epoch": 59185,
        "meta_bstar": 0.00091306486,
        "meta_mean_motion_dot": 4.268e-05,
        "meta_mean_motion_ddot": 0,
        "tle_line1": "1 40233U 93036BVN 25350.03185433  .00004268  00000+0  91306-3 0  9996",
        "tle_line2": "2 40233  73.9406  96.8035 0044987 171.0622 189.1354 14.58458772591855"
      },
      "geometry": {
        "type": "Point",
        "coordinates": [
          -149.4811776887521,
          72.03982920262654
        ]
      }
    },
    {
      "type": "Feature",
      "properties": {
        "norad_id": 40236,
        "name": "COSMOS 2251 DEB",
        "group": "cosmos-2251-debris",
        "lat": -7.5779698642635624,
        "lon": -42.125001105284284,
        "alt_km": 1571.2016483212374,
        "timestamp": "2025-12-17T21:39:46.087621+00:00",
        "meta_object_name": "COSMOS 2251 DEB",
        "meta_object_id": "1993-036BVR",
        "meta_epoch": "2025-12-07T17:52:23.026080",
        "meta_mean_motion": 13.24639967,
        "meta_eccentricity": 0.05366128,
        "meta_inclination": 73.5349,
        "meta_ra_of_asc_node": 151.6266,
        "meta_arg_of_pericenter": 32.3576,
        "meta_mean_anomaly": 330.9258,
        "meta_ephemeris_type": 0,
        "meta_classification_type": "U",
        "meta_norad_cat_id": 40236,
        "meta_element_set_no": 999,
        "meta_rev_at_epoch": 53558,
        "meta_bstar": 0.0015786255,
        "meta_mean_motion_dot": 1.455e-05,
        "meta_mean_motion_ddot": 0,
        "tle_line1": "1 40236U 93036BVR 25341.74471095  .00001455  00000+0  15786-2 0  9991",
        "tle_line2": "2 40236  73.5349 151.6266 0536612  32.3576 330.9258 13.24639967535580"
      },
      "geometry": {
        "type": "Point",
        "coordinates": [
          -42.125001105284284,
          -7.5779698642635624
        ]
      }
    },
    {
      "type": "Feature",
      "properties": {
        "norad_id": 40238,
        "name": "COSMOS 2251 DEB",
        "group": "cosmos-2251-debris",
        "lat": -68.76089206660195,
        "lon": 8.046789756251592,
        "alt_km": 1238.685729042587,
        "timestamp": "2025-12-17T21:39:46.087630+00:00",
        "meta_object_name": "COSMOS 2251 DEB",
        "meta_object_id": "1993-036BVT",
        "meta_epoch": "2025-12-13T22:00:17.688960",
        "meta_mean_motion": 13.25118761,
        "meta_eccentricity": 0.05494159,
        "meta_inclination": 73.9889,
        "meta_ra_of_asc_node": 61.7905,
        "meta_arg_of_pericenter": 33.3831,
        "meta_mean_anomaly": 330.0665,
        "meta_ephemeris_type": 0,
        "meta_classification_type": "U",
        "meta_norad_cat_id": 40238,
        "meta_element_set_no": 999,
        "meta_rev_at_epoch": 54052,
        "meta_bstar": 0.0015955991,
        "meta_mean_motion_dot": 1.546e-05,
        "meta_mean_motion_ddot": 0,
        "tle_line1": "1 40238U 93036BVT 25347.91687140  .00001546  00000+0  15956-2 0  9998",
        "tle_line2": "2 40238  73.9889  61.7905 0549415  33.3831 330.0665 13.25118761540524"
      },
      "geometry": {
        "type": "Point",
        "coordinates": [
          8.046789756251592,
          -68.76089206660195
        ]
      }
    },
    {
      "type": "Feature",
      "properties": {
        "norad_id": 40239,
        "name": "COSMOS 2251 DEB",
        "group": "cosmos-2251-debris",
        "lat": 54.90796127306715,
        "lon": 61.90299461542569,
        "alt_km": 696.6550335833645,
        "timestamp": "2025-12-17T21:39:46.087639+00:00",
        "meta_object_name": "COSMOS 2251 DEB",
        "meta_object_id": "1993-036BVU",
        "meta_epoch": "2025-12-10T14:12:54.993024",
        "meta_mean_motion": 14.6197936,
        "meta_eccentricity": 0.0084758,
        "meta_inclination": 74.0316,
        "meta_ra_of_asc_node": 279.9471,
        "meta_arg_of_pericenter": 31.8637,
        "meta_mean_anomaly": 148.8031,
        "meta_ephemeris_type": 0,
        "meta_classification_type": "U",
        "meta_norad_cat_id": 40239,
        "meta_element_set_no": 999,
        "meta_rev_at_epoch": 59579,
        "meta_bstar": 0.00074089,
        "meta_mean_motion_dot": 3.879e-05,
        "meta_mean_motion_ddot": 0,
        "tle_line1": "1 40239U 93036BVU 25344.59230316  .00003879  00000+0  74089-3 0  9993",
        "tle_line2": "2 40239  74.0316 279.9471 0084758  31.8637 148.8031 14.61979360595796"
      },
      "geometry": {
        "type": "Point",
        "coordinates": [
          61.90299461542569,
          54.90796127306715
        ]
      }
    }
  ]
}